CTC2_L_00215016-03
1 59173U 26680XH  26070.40844907  .00000000  00000+0  00000-0 0  9997
2 59173  65.0000 180.0000 0000000   0.0000   0.0000 14.33516687    12
CTC2_L_00215016-04
1 59174U 23541ZK  26070.40844907  .00000000  00000+0  00000-0 0  9991
2 59174  65.0000 180.0000 0000000   0.0000  90.0000 14.33516687    12
CTC2_L_00215017-01
1 59175U 26741JX  26070.40844907  .00000000  00000+0  00000-0 0  9997
2 59175  65.0000 192.0000 0000000   0.0000 192.0000 14.33516687    19
CTC2_L_00215017-02
1 59176U 25852OT  26070.40844907  .00000000  00000+0  00000-0 0  9990
2 59176  65.0000 192.0000 0000000   0.0000 282.0000 14.33516687    10
CTC2_L_00215017-03
1 59177U 25742IF  26070.40844907  .00000000  00000+0  00000-0 0  9999
2 59177  65.0000 192.0000 0000000   0.0000  12.0000 14.33516687    12
CTC2_L_00215017-04
1 59178U 24811QH  26070.40844907  .00000000  00000+0  00000-0 0  9996
2 59178  65.0000 192.0000 0000000   0.0000 102.0000 14.33516687    13
CTC2_L_00215018-01
1 59179U 26327FE  26070.40844907  .00000000  00000+0  00000-0 0  9991
2 59179  65.0000 204.0000 0000000   0.0000 204.0000 14.33516687    11
CTC2_L_00215018-02
1 59180U 23899AR  26070.40844907  .00000000  00000+0  00000-0 0  9994
2 59180  65.0000 204.0000 0000000   0.0000 294.0000 14.33516687    12
CTC2_L_00215018-03
1 59181U 22929PY  26070.40844907  .00000000  00000+0  00000-0 0  9998
2 59181  65.0000 204.0000 0000000   0.0000  24.0000 14.33516687    14
CTC2_L_00215018-04
1 59182U 23487VB  26070.40844907  .00000000  00000+0  00000-0 0  9999
2 59182  65.0000 204.0000 0000000   0.0000 114.0000 14.33516687    15
CTC2_L_00215019-01
1 59183U 23740HK  26070.40844907  .00000000  00000+0  00000-0 0  9992
2 59183  65.0000 216.0000 0000000   0.0000 216.0000 14.33516687    12
CTC2_L_00215019-02
1 59184U 25724SI  26070.40844907  .00000000  00000+0  00000-0 0  9997
2 59184  65.0000 216.0000 0000000   0.0000 306.0000 14.33516687    13
CTC2_L_00215019-03
1 59185U 26431GO  26070.40844907  .00000000  00000+0  00000-0 0  9994
2 59185  65.0000 216.0000 0000000   0.0000  36.0000 14.33516687    14
CTC2_L_00215019-04
1 59186U 25992HI  26070.40844907  .00000000  00000+0  00000-0 0  9996
2 59186  65.0000 216.0000 0000000   0.0000 126.0000 14.33516687    15
CTC2_L_00215020-01
1 59187U 23547KT  26070.40844907  .00000000  00000+0  00000-0 0  9991
2 59187  65.0000 228.0000 0000000   0.0000 228.0000 14.33516687    12
CTC2_L_00215020-02
1 59188U 25453AV  26070.40844907  .00000000  00000+0  00000-0 0  9990
2 59188  65.0000 228.0000 0000000   0.0000 318.0000 14.33516687    13
CTC2_L_00215020-03
1 59189U 25201CV  26070.40844907  .00000000  00000+0  00000-0 0  9992
2 59189  65.0000 228.0000 0000000   0.0000  48.0000 14.33516687    14
CTC2_L_00215020-04
1 59190U 24538TY  26070.40844907  .00000000  00000+0  00000-0 0  9996
2 59190  65.0000 228.0000 0000000   0.0000 138.0000 14.33516687    16
CTC2_L_00215021-01
1 59191U 22048NJ  26070.40844907  .00000000  00000+0  00000-0 0  9991
2 59191  65.0000 240.0000 0000000   0.0000 240.0000 14.33516687    15
CTC2_L_00215021-02
1 59192U 24670TU  26070.40844907  .00000000  00000+0  00000-0 0  9995
2 59192  65.0000 240.0000 0000000   0.0000 330.0000 14.33516687    16
CTC2_L_00215021-03
1 59193U 23367AN  26070.40844907  .00000000  00000+0  00000-0 0  9998
2 59193  65.0000 240.0000 0000000   0.0000  60.0000 14.33516687    17
CTC2_L_00215021-04
1 59194U 26334IN  26070.40844907  .00000000  00000+0  00000-0 0  9996
2 59194  65.0000 240.0000 0000000   0.0000 150.0000 14.33516687    18
CTC2_L_00215022-01
1 59195U 26807SB  26070.40844907  .00000000  00000+0  00000-0 0  9992
2 59195  65.0000 252.0000 0000000   0.0000 252.0000 14.33516687    15
CTC2_L_00215022-02
1 59196U 22231MP  26070.40844907  .00000000  00000+0  00000-0 0  9990
2 59196  65.0000 252.0000 0000000   0.0000 342.0000 14.33516687    16
CTC2_L_00215022-03
1 59197U 25029HN  26070.40844907  .00000000  00000+0  00000-0 0  9999
2 59197  65.0000 252.0000 0000000   0.0000  72.0000 14.33516687    17
CTC2_L_00215022-04
1 59198U 24237QI  26070.40844907  .00000000  00000+0  00000-0 0  9990
2 59198  65.0000 252.0000 0000000   0.0000 162.0000 14.33516687    18
CTC2_L_00215023-01
1 59199U 26650XS  26070.40844907  .00000000  00000+0  00000-0 0  9992
2 59199  65.0000 264.0000 0000000   0.0000 264.0000 14.33516687    15
CTC2_L_00215023-02
1 59200U 26022BX  26070.40844907  .00000000  00000+0  00000-0 0  9998
2 59200  65.0000 264.0000 0000000   0.0000 354.0000 14.33516687    18
CTC2_L_00215023-03
1 59201U 23278FD  26070.40844907  .00000000  00000+0  00000-0 0  9999
2 59201  65.0000 264.0000 0000000   0.0000  84.0000 14.33516687    19
CTC2_L_00215023-04
1 59202U 25818VP  26070.40844907  .00000000  00000+0  00000-0 0  9992
2 59202  65.0000 264.0000 0000000   0.0000 174.0000 14.33516687    10
CTC2_L_00215024-01
1 59203U 23111OR  26070.40844907  .00000000  00000+0  00000-0 0  9997
2 59203  65.0000 276.0000 0000000   0.0000 276.0000 14.33516687    17
CTC2_L_00215024-02
1 59204U 22208EF  26070.40844907  .00000000  00000+0  00000-0 0  9994
2 59204  65.0000 276.0000 0000000   0.0000   6.0000 14.33516687    19
CTC2_L_00215024-03
1 59205U 25808BA  26070.40844907  .00000000  00000+0  00000-0 0  9994
2 59205  65.0000 276.0000 0000000   0.0000  96.0000 14.33516687    19
CTC2_L_00215024-04
1 59206U 25111SF  26070.40844907  .00000000  00000+0  00000-0 0  9992
2 59206  65.0000 276.0000 0000000   0.0000 186.0000 14.33516687    10
CTC2_L_00215025-01
1 59207U 22330VZ  26070.40844907  .00000000  00000+0  00000-0 0  9993
2 59207  65.0000 288.0000 0000000   0.0000 288.0000 14.33516687    17
CTC2_L_00215025-02
1 59208U 22021G   26070.40844907  .00000000  00000+0  00000-0 0  9991
2 59208  65.0000 288.0000 0000000   0.0000  18.0000 14.33516687    19
CTC2_L_00215025-03
1 59209U 22130UW  26070.40844907  .00000000  00000+0  00000-0 0  9993
2 59209  65.0000 288.0000 0000000   0.0000 108.0000 14.33516687    10
CTC2_L_00215025-04
1 59210U 25856UN  26070.40844907  .00000000  00000+0  00000-0 0  9993
2 59210  65.0000 288.0000 0000000   0.0000 198.0000 14.33516687    11
CTC2_L_00215026-01
1 59211U 22081QL  26070.40844907  .00000000  00000+0  00000-0 0  9991
2 59211  65.0000 300.0000 0000000   0.0000 300.0000 14.33516687    12
CTC2_L_00215026-02
1 59212U 24124HB  26070.40844907  .00000000  00000+0  00000-0 0  9992
2 59212  65.0000 300.0000 0000000   0.0000  30.0000 14.33516687    13
CTC2_L_00215026-03
1 59213U 24556YY  26070.40844907  .00000000  00000+0  00000-0 0  9992
2 59213  65.0000 300.0000 0000000   0.0000 120.0000 14.33516687    14
CTC2_L_00215026-04
1 59214U 24513H   26070.40844907  .00000000  00000+0  00000-0 0  9996
2 59214  65.0000 300.0000 0000000   0.0000 210.0000 14.33516687    15
CTC2_L_00215027-01
1 59215U 26129OD  26070.40844907  .00000000  00000+0  00000-0 0  9992
2 59215  65.0000 312.0000 0000000   0.0000 312.0000 14.33516687    12
CTC2_L_00215027-02
1 59216U 24736LL  26070.40844907  .00000000  00000+0  00000-0 0  9995
2 59216  65.0000 312.0000 0000000   0.0000  42.0000 14.33516687    13
CTC2_L_00215027-03
1 59217U 26532L   26070.40844907  .00000000  00000+0  00000-0 0  9992
2 59217  65.0000 312.0000 0000000   0.0000 132.0000 14.33516687    14
CTC2_L_00215027-04
1 59218U 22304JJ  26070.40844907  .00000000  00000+0  00000-0 0  9996
2 59218  65.0000 312.0000 0000000   0.0000 222.0000 14.33516687    15
CTC2_L_00215028-01
1 59219U 23030IH  26070.40844907  .00000000  00000+0  00000-0 0  9994
2 59219  65.0000 324.0000 0000000   0.0000 324.0000 14.33516687    12
CTC2_L_00215028-02
1 59220U 25348LO  26070.40844907  .00000000  00000+0  00000-0 0  9990
2 59220  65.0000 324.0000 0000000   0.0000  54.0000 14.33516687    14
CTC2_L_00215028-03
1 59221U 23306UP  26070.40844907  .00000000  00000+0  00000-0 0  9993
2 59221  65.0000 324.0000 0000000   0.0000 144.0000 14.33516687    15
CTC2_L_00215028-04
1 59222U 26190EZ  26070.40844907  .00000000  00000+0  00000-0 0  9998
2 59222  65.0000 324.0000 0000000   0.0000 234.0000 14.33516687    16
CTC2_L_00215029-01
1 59223U 25122NO  26070.40844907  .00000000  00000+0  00000-0 0  9993
2 59223  65.0000 336.0000 0000000   0.0000 336.0000 14.33516687    13
CTC2_L_00215029-02
1 59224U 25436DN  26070.40844907  .00000000  00000+0  00000-0 0  9992
2 59224  65.0000 336.0000 0000000   0.0000  66.0000 14.33516687    14
CTC2_L_00215029-03
1 59225U 23282RS  26070.40844907  .00000000  00000+0  00000-0 0  9990
2 59225  65.0000 336.0000 0000000   0.0000 156.0000 14.33516687    15
CTC2_L_00215029-04
1 59226U 22616ZS  26070.40844907  .00000000  00000+0  00000-0 0  9991
2 59226  65.0000 336.0000 0000000   0.0000 246.0000 14.33516687    16
CTC2_L_00215030-01
1 59227U 22261BA  26070.40844907  .00000000  00000+0  00000-0 0  9998
2 59227  65.0000 348.0000 0000000   0.0000 348.0000 14.33516687    13
CTC2_L_00215030-02
1 59228U 22829ON  26070.40844907  .00000000  00000+0  00000-0 0  9999
2 59228  65.0000 348.0000 0000000   0.0000  78.0000 14.33516687    14
CTC2_L_00215030-03
1 59229U 24943UC  26070.40844907  .00000000  00000+0  00000-0 0  9999
2 59229  65.0000 348.0000 0000000   0.0000 168.0000 14.33516687    15
CTC2_L_00215030-04
1 59230U 22593ZG  26070.40844907  .00000000  00000+0  00000-0 0  9990
2 59230  65.0000 348.0000 0000000   0.0000 258.0000 14.33516687    17
